OBJECT_NAME,OBJECT_ID,EPOCH,MEAN_MOTION,ECCENTRICITY,INCLINATION,RA_OF_ASC_NODE,ARG_OF_PERICENTER,MEAN_ANOMALY,EPHEMERIS_TYPE,CLASSIFICATION_TYPE,NORAD_CAT_ID,ELEMENT_SET_NO,REV_AT_EPOCH,BSTAR,MEAN_MOTION_DOT,MEAN_MOTION_DDOT
GALAXY 3C (G-3C),2002-030A,2026-06-11T02:55:30.304128,1.00271176,.00016705,3.7147,78.0560,33.1798,97.2638,0,U,27445,999,4643,0,-.137E-5,0
INTELSAT 906 (IS-906),2002-041A,2026-06-11T04:59:43.143072,1.00271732,.00046582,5.7882,72.9953,0.9207,324.6993,0,U,27513,999,8696,0,.27E-6,0
NIMIQ 2,2002-062A,2026-06-11T04:12:57.401568,1.00271733,.00055091,9.4319,56.9628,19.6676,136.9392,0,U,27632,999,4412,0,-.58E-6,0
USA 167,2003-008A,2026-06-11T03:02:21.586272,1.00273164,.00036573,10.9489,43.4615,313.1691,186.7223,0,U,27691,999,671,0,.12E-6,0
USA 169 (MILSTAR-2 4),2003-012A,2026-06-10T22:34:08.362848,1.00269686,.01008112,12.3397,29.8905,8.8910,351.1542,0,U,27711,999,3288,0,-.222E-5,0
ASIASAT 4,2003-014A,2026-06-10T14:40:38.738208,1.00271977,.00029562,4.6884,75.8282,6.2483,184.5990,0,U,27718,999,4523,0,-.206E-5,0
HELLAS-SAT 2,2003-020A,2026-06-10T23:30:37.109088,1.00271194,.00024772,7.3387,67.9570,13.7585,160.2596,0,U,27811,999,4278,0,-.71E-6,0
THURAYA-2,2003-026A,2026-06-11T04:53:58.693056,1.00271421,.0003203,8.8317,32.0052,6.6409,338.3948,0,U,27825,999,8428,0,.135E-5,0
OPTUS C1,2003-028B,2026-06-10T14:00:38.781216,1.00273026,.00055789,6.8723,69.4885,10.4965,184.8362,0,U,27831,999,5299,0,-.137E-5,0
USA 170,2003-040A,2026-06-10T22:23:31.600032,1.00277806,.00019086,10.4865,48.0055,38.2819,173.2406,0,U,27875,999,3293,0,.137E-5,0
GALAXY 13 (HORIZONS-1),2003-044A,2026-06-11T06:31:38.041248,1.00274573,.00021292,1.4047,83.9332,353.8891,129.7180,0,U,27954,999,4651,0,.149E-5,0
YAMAL 202,2003-053A,2026-06-10T12:45:38.644992,1.00273177,.00034109,6.3267,71.0197,356.3042,186.5832,0,U,28089,999,8263,0,-.65E-6,0
UFO 11 (USA 174),2003-057A,2026-06-11T03:42:21.685824,1.00273987,.00025284,8.9389,33.8613,47.0853,309.7220,0,U,28117,999,8238,0,-.95E-6,0
USA 176 (DSP 22),2004-004A,2026-06-11T04:38:12.767712,1.00406765,.00012019,12.0538,26.1129,292.1259,320.7328,0,U,28158,999,3287,0,-.284E-5,0
ABS-4 (MOBISAT-1),2004-007A,2026-06-10T20:52:47.403840,1.00271985,.00051894,6.0266,72.0838,4.9834,196.3030,0,U,28184,999,5227,0,.54E-6,0
INTELSAT 10-02,2004-022A,2026-06-11T04:41:07.426176,1.00273460,.00003131,0.0130,324.2334,184.7134,179.8731,0,U,28358,999,8049,0,.7E-7,0
ANIK F2,2004-027A,2026-06-11T02:27:07.409376,1.00271335,.00041119,3.2707,79.5236,4.9200,100.6633,0,U,28378,999,4120,0,-.34E-6,0
AMC-15,2004-041A,2026-06-11T04:01:38.733888,1.00271703,.00021827,0.0251,312.1670,136.0338,126.6875,0,U,28446,999,7924,0,-.71E-6,0
NSS-10,2005-003A,2026-06-11T05:11:56.335200,1.00270318,.00028157,6.4338,70.5249,12.8082,216.7645,0,U,28526,999,5309,0,-.238E-5,0
INMARSAT 4-F1,2005-009A,2026-06-10T20:58:54.202944,1.00271373,.00026058,5.1590,42.7418,40.4600,308.8737,0,U,28628,999,7760,0,.47E-6,0
DIRECTV 8,2005-019A,2026-06-11T05:50:10.650912,1.00271790,.00028597,0.0151,48.6061,35.4050,144.0790,0,U,28659,999,7701,0,.18E-6,0
GALAXY 28 (G-28),2005-022A,2026-06-11T04:59:23.733312,1.00271877,.00028609,3.2840,79.0057,357.9953,230.3033,0,U,28702,999,5191,0,-.184E-5,0
THAICOM 4,2005-028A,2026-06-11T01:50:12.152256,1.00270681,.00017398,0.2289,85.9765,348.6048,331.9051,0,U,28786,999,5218,0,-.345E-5,0
ANIK F1R,2005-036A,2026-06-11T04:11:10.031424,1.00272293,.00041662,4.2965,76.6528,7.8739,130.5242,0,U,28868,999,4639,0,-.6E-6,0
SYRACUSE 3A,2005-041B,2026-06-11T02:28:21.810144,1.00272375,.00030727,4.6279,75.9123,343.4622,283.8051,0,U,28885,999,7568,0,.144E-5,0
INMARSAT 4-F2,2005-044A,2026-06-11T00:14:11.282784,1.00271313,.00028542,5.0868,43.7052,34.8095,327.8867,0,U,28899,999,7546,0,-.247E-5,0
METEOSAT-9 (MSG-2),2005-049B,2026-06-10T20:21:02.721024,1.00269523,.0001608,9.3464,54.2281,348.0762,207.8226,0,U,28912,999,693,0,.136E-5,0
EUTELSAT 174A,2005-052A,2026-06-10T20:57:46.810944,1.00269968,.00062297,4.2027,76.6030,3.6333,307.4091,0,U,28924,999,5226,0,.24E-6,0
ECHOSTAR 10,2006-003A,2026-06-11T02:27:22.385088,1.00270525,.00016594,0.0200,327.4129,85.4443,133.2570,0,U,28935,999,7440,0,-.38E-6,0
SPAINSAT,2006-007A,2026-06-10T08:46:00.867648,1.00271611,.00047737,0.5446,86.6479,351.7166,281.7003,0,U,28945,999,7415,0,-.199E-5,0
JCSAT-5A,2006-010A,2026-06-11T05:19:02.678592,1.00272055,.00019147,1.0931,84.2808,10.5764,16.5183,0,U,29045,999,7371,0,-.311E-5,0
ASTRA 1KR,2006-012A,2026-06-11T04:46:51.875328,1.00269058,.00033856,0.4575,83.1989,351.3349,275.7282,0,U,29055,999,4563,0,.136E-5,0
