1 27445U 02030A 26162.12187852 -.00000137 00000+0 00000+0 0 9998 
2 27445 3.7147 78.0560 0001670 33.1798 97.2638 1.00271176 46434 
1 27513U 02041A 26162.20813823 .00000027 00000+0 00000+0 0 9996 
2 27513 5.7882 72.9953 0004658 0.9207 324.6993 1.00271732 86964 
1 27632U 02062A 26162.17566437 -.00000058 00000+0 00000+0 0 9998 
2 27632 9.4319 56.9628 0005509 19.6676 136.9392 1.00271733 44126 
1 27691U 03008A 26162.12663873 .00000012 00000+0 00000+0 0 9990 
2 27691 10.9489 43.4615 0003657 313.1691 186.7223 1.00273164 6713 
1 27711U 03012A 26161.94037457 -.00000222 00000+0 00000+0 0 9994 
2 27711 12.3397 29.8905 0100811 8.8910 351.1542 1.00269686 32885 
1 27718U 03014A 26161.61155947 -.00000206 00000+0 00000+0 0 9994 
2 27718 4.6884 75.8282 0002956 6.2483 184.5990 1.00271977 45238 
1 27811U 03020A 26161.97959617 -.00000071 00000+0 00000+0 0 9990 
2 27811 7.3387 67.9570 0002477 13.7585 160.2596 1.00271194 42787 
1 27825U 03026A 26162.20415154 .00000135 00000+0 00000+0 0 9991 
2 27825 8.8317 32.0052 0003203 6.6409 338.3948 1.00271421 84286 
1 27831U 03028B 26161.58378219 -.00000137 00000+0 00000+0 0 9993 
2 27831 6.8723 69.4885 0005578 10.4965 184.8362 1.00273026 52997 
1 27875U 03040A 26161.93300463 .00000137 00000+0 00000+0 0 9999 
2 27875 10.4865 48.0055 0001908 38.2819 173.2406 1.00277806 32937 
1 27954U 03044A 26162.27196807 .00000149 00000+0 00000+0 0 9997 
2 27954 1.4047 83.9332 0002129 353.8891 129.7180 1.00274573 46517 
1 28089U 03053A 26161.53169728 -.00000065 00000+0 00000+0 0 9995 
2 28089 6.3267 71.0197 0003410 356.3042 186.5832 1.00273177 82639 
1 28117U 03057A 26162.15441766 -.00000095 00000+0 00000+0 0 9998 
2 28117 8.9389 33.8613 0002528 47.0853 309.7220 1.00273987 82387 
1 28158U 04004A 26162.19320333 -.00000284 00000+0 00000+0 0 9996 
2 28158 12.0538 26.1129 0001201 292.1259 320.7328 1.00406765 32874 
1 28184U 04007A 26161.86999310 .00000054 00000+0 00000+0 0 9992 
2 28184 6.0266 72.0838 0005189 4.9834 196.3030 1.00271985 52275 
1 28358U 04022A 26162.19522484 .00000007 00000+0 00000+0 0 9991 
2 28358 0.0130 324.2334 0000313 184.7134 179.8731 1.00273460 80498 
1 28378U 04027A 26162.10216909 -.00000034 00000+0 00000+0 0 9992 
2 28378 3.2707 79.5236 0004111 4.9200 100.6633 1.00271335 41201 
1 28446U 04041A 26162.16780942 -.00000071 00000+0 00000+0 0 9994 
2 28446 0.0251 312.1670 0002182 136.0338 126.6875 1.00271703 79249 
1 28526U 05003A 26162.21662425 -.00000238 00000+0 00000+0 0 9998 
2 28526 6.4338 70.5249 0002815 12.8082 216.7645 1.00270318 53093 
1 28628U 05009A 26161.87423846 .00000047 00000+0 00000+0 0 9997 
2 28628 5.1590 42.7418 0002605 40.4600 308.8737 1.00271373 77601 
1 28659U 05019A 26162.24317883 .00000018 00000+0 00000+0 0 9995 
2 28659 0.0151 48.6061 0002859 35.4050 144.0790 1.00271790 77012 
1 28702U 05022A 26162.20791358 -.00000184 00000+0 00000+0 0 9992 
2 28702 3.2840 79.0057 0002860 357.9953 230.3033 1.00271877 51916 
1 28786U 05028A 26162.07652954 -.00000345 00000+0 00000+0 0 9992 
2 28786 0.2289 85.9765 0001739 348.6048 331.9051 1.00270681 52180 
1 28868U 05036A 26162.17442166 -.00000060 00000+0 00000+0 0 9999 
2 28868 4.2965 76.6528 0004166 7.8739 130.5242 1.00272293 46390 
1 28885U 05041B 26162.10303021 .00000144 00000+0 00000+0 0 9995 
2 28885 4.6279 75.9123 0003072 343.4622 283.8051 1.00272375 75684 
1 28899U 05044A 26162.00985281 -.00000247 00000+0 00000+0 0 9991 
2 28899 5.0868 43.7052 0002854 34.8095 327.8867 1.00271313 75465 
1 28912U 05049B 26161.84794816 .00000136 00000+0 00000+0 0 9991 
2 28912 9.3464 54.2281 0001608 348.0762 207.8226 1.00269523 6930 
1 28924U 05052A 26161.87345846 .00000024 00000+0 00000+0 0 9992 
2 28924 4.2027 76.6030 0006229 3.6333 307.4091 1.00269968 52261 
1 28935U 06003A 26162.10234242 -.00000038 00000+0 00000+0 0 9991 
2 28935 0.0200 327.4129 0001659 85.4443 133.2570 1.00270525 74406 
1 28945U 06007A 26161.36528782 -.00000199 00000+0 00000+0 0 9996 
2 28945 0.5446 86.6479 0004773 351.7166 281.7003 1.00271611 74156 
1 29045U 06010A 26162.22155878 -.00000311 00000+0 00000+0 0 9996 
2 29045 1.0931 84.2808 0001914 10.5764 16.5183 1.00272055 73718 
1 29055U 06012A 26162.19921152 .00000136 00000+0 00000+0 0 9995 
2 29055 0.4575 83.1989 0003385 351.3349 275.7282 1.00269058 45631 
